#cP2024  9 19  0  0  0.00000000      96 ORBIT IGS20 HLM  IGS
## 2332 345600.00000000   900.00000000 60572 0.0000000000000
+   22   R01R02R03R04R05R07R08R09R11R12R14R15R16R17R18R19R20
+        R21R22R24R25R26  0  0  0  0  0  0  0  0  0  0  0  0
+          0  0  0  0  0  0  0  0  0  0  0  0  0  0  0  0  0
+          0  0  0  0  0  0  0  0  0  0  0  0  0  0  0  0  0
+          0  0  0  0  0  0  0  0  0  0  0  0  0  0  0  0  0
++         4  3  3  3  3  3  3  3  3  3  3  3  3  3  3  5  4
++         3  3  3  3  5  0  0  0  0  0  0  0  0  0  0  0  0
++         0  0  0  0  0  0  0  0  0  0  0  0  0  0  0  0  0
++         0  0  0  0  0  0  0  0  0  0  0  0  0  0  0  0  0
++         0  0  0  0  0  0  0  0  0  0  0  0  0  0  0  0  0
%c R  cc GPS ccc cccc cccc cccc cccc ccccc ccccc ccccc ccccc
%c cc cc ccc ccc cccc cccc cccc cccc ccccc ccccc ccccc ccccc
%f  1.2500000  1.025000000  0.00000000000  0.000000000000000
%f  0.0000000  0.000000000  0.00000000000  0.000000000000000
%i    0    0    0    0      0      0      0      0         0
%i    0    0    0    0      0      0      0      0         0
/* FINAL ORBIT COMBINATION FROM WEIGHTED AVERAGE OF:        
/* brx cod esa gfz grg iac jgx                              
/* PCV:IGS20_2317 OL/AL:FES2014bIGS20     YN CLK:CoN ORB:CoN
/* PCV:IGS20      OL/AL:FES2014b NONE     Y  ORB:CMB CLK:CMB
*  2024  9 19 15  0  0.00000000
PR01  13795.883122    312.510776  21448.624959     98.313016 12 14 11           
PR02   1700.162771 -13771.520841  21458.839343    -24.727606  4  8  7           
PR03 -11567.721515 -20819.064165   9262.506996    107.866523  7  7 10           
PR04 -17879.721234 -16527.236975  -7616.739549    255.454013 10 10 11           
PR05 -14856.126184  -3412.770967 -20456.918530    137.894225 10  9  9           
PR07  11888.488608  20799.025373  -8645.413784     91.232299  8  9 10           
PR08  18094.145094  16117.508475   7957.673220     -6.380551  9  9  9           
PR09 -14514.515318  11746.224858  17357.193430    210.043656 10  6  7           
PR11  18678.527709   4704.464851  16746.197831     11.448817 10  8 10           
PR12  24961.592134  -5029.903410  -1382.732413     45.037768  8 12 11           
PR14  -3394.885558 -10683.449560 -22896.651811     26.943102 10  9  6           
PR15 -19890.638793  -4068.520210 -15414.897787     75.734289  7  9  9           
PR16 -24951.721651   5052.502844   1260.439454     29.269546  2  9  7           
PR17   1451.416223 -21462.041538  13679.429912    123.416557  9  8 10           
PR18  -7545.414818  -8887.863776  22710.992191    162.821876  7  9  7           
PR19 -12930.154292   6141.808494  21119.794485   -291.922992 13 15  8           
PR20 -11783.878054  22161.995106   4472.270671   -119.306207 10 14 13           
PR21  -2162.835725  21827.593240 -13050.051193   -135.780916  9  7 11           
PR22   8310.982611   8000.874720 -22721.212110     43.055472  8  7  7           
PR24  10608.183610 -22855.239709  -3858.755235    -72.650413 10  9  8           
PR25  -1914.323412  21344.020837 -13851.060150    -99.072259 14 13 11           
PR26  18001.129194  16931.969529   6371.142286     33.226184 15 16 14           
*  2024  9 19 15 15  0.00000000
PR01  15593.727340   2140.355034  20069.093107     98.314991 12 13 12           
PR02   3422.807058 -11691.030604  22459.860608    -24.726675  5  8  7           
PR03 -10811.835297 -19737.279807  12111.731625    107.868498  7  8 10           
PR04 -18502.804570 -16981.544309  -4503.826177    255.455170  9 10 11           
PR05 -16506.821697  -5186.312775 -18750.323309    137.894338 10  9  9           
PR07  11167.563335  19764.426171 -11542.270537     91.232299  8 10 10           
PR08  18729.327540  16604.097501   4862.392284     -6.380551  9  9  9           
PR09 -16447.000026  12270.184948  15117.303916    210.043881 10  6  8           
PR11  16518.304540   5071.495619  18784.929142     11.448705 10  8 10           
PR12  24911.255618  -5155.185381   1823.418835     45.037768  7 11 12           
PR14   -634.743778 -11286.764537 -22851.838132     26.942171 10  9  6           
PR15 -17872.002896  -4397.500612 -17634.732315     75.734177  8  9  8           
PR16 -24876.487084   5191.846099  -1957.094907     29.269546     9  7           
PR17   1795.563053 -22951.364842  10940.722390    123.419690  9  9 10           
PR18  -6678.489431 -11492.414215  21797.845955    162.824895  7  8  8           
PR19 -11876.601215   3675.206711  22278.885514   -291.924968 12 15  9           
PR20 -11313.442600  21546.091768   7608.220973   -119.307139  9 14 12           
PR21  -2476.132386  23243.069469 -10254.222778   -135.784049 10  7 11           
PR22   7352.036584  10594.788463 -21978.869991     43.046781  8  7  8           
PR24  10252.677045 -22266.206388  -6984.310125    -72.652502 10  9  8           
PR25  -2353.787311  22828.875181 -11157.523054    -99.069803 14 13 11           
PR26  18514.842165  17264.456202   3222.608947     33.240099 15 16 14           
*  2024  9 19 15 30  0.00000000
PR01  17377.969704   3700.341854  18299.653892     98.315810 11 13 13           
PR02   5363.162057  -9675.385417  23026.882897    -24.726675  5  8  7           
PR03  -9739.553827 -18478.844970  14727.021564    107.869316  7  9  9           
PR04 -18884.338282 -17112.813394  -1303.481880    255.456807  8 10 11           
PR05 -18121.591384  -6666.754344 -16679.789573    137.895156 10  9 10           
PR07  10128.225314  18544.257342 -14213.828368     91.232299  8 10  9           
PR08  19123.263900  16771.088222   1672.540560     -6.380551  9  9  9           
PR09 -18057.647801  12840.570918  12583.058062    210.045518 10  5  8           
PR11  14171.166207   5658.132582  20459.471742     11.447886 10  8  9           
PR12  24474.066292  -5170.278697   4994.133552     45.037768  6 11 12           
PR14   2043.492950 -12076.263344 -22362.573015     26.942171 10  9  6           
PR15 -15639.154522  -4939.112788 -19511.313018     75.733358  8  9  8           
PR16 -24412.407788   5216.848057  -5136.514141     29.269546  2  9  8           
PR17   1937.481910 -24123.947700   7989.009609    123.422145  9 10 10           
PR18  -6048.202343 -14021.928174  20462.502328    162.826532  7  8  9           
PR19 -10979.641198   1024.800894  23005.563190   -291.925786 12 15 10           
PR20 -10778.130583  20537.142172  10596.185253   -119.307139  9 14 12           
PR21  -2587.207236  24335.220514  -7259.585991   -135.786504 10  9 11           
PR22   6619.017375  13138.851159 -20808.423213     43.037777  8  8  9           
PR24   9844.357655 -21288.667916  -9973.874662    -72.654139 10  9  8           
PR25  -2582.282695  24012.340706  -8247.502516    -99.067347 14 13 11           
PR26  18771.744467  17285.178311     11.554300     33.254015 15 16 15           
*  2024  9 19 15 45  0.00000000
PR01  19085.226478   4974.793436  16174.706222     98.316854 11 13 13           
PR02   7479.767411  -7780.712643  23148.727125    -24.725743  6  8  7           
PR03  -8347.813841 -17104.544286  17057.917219    107.870361  7  9  9           
PR04 -18978.372241 -16953.941614   1922.160314    255.458895  8 10 11           
PR05 -19636.652318  -7840.630711 -14285.565498    137.895269  9  9 10           
PR07   8765.893480  17199.235767 -16607.912617     91.232299  7 10  9           
PR08  19229.750373  16650.418891  -1549.863287     -6.379620  8  9  9           
PR09 -19319.099810  13404.426052   9803.619023    210.047607 10  5  8           
PR11  11702.195938   6475.803798  21737.361150     11.446842 10  8  9           
PR12  23674.589392  -5025.762029   8067.827784     45.038683  6 11 12           
PR14   4576.490330 -13025.087411 -21438.460820     26.942171 10  9  5           
PR15 -13254.965637  -5709.148758 -21008.080936     75.732314  9  9  7           
PR16 -23584.783773   5077.666610  -8215.890893     29.269546  4  9  8           
PR17   1919.384830 -24937.990953   4881.700129    123.425277  9 11 10           
PR18  -5649.690265 -16407.486784  18730.885630    162.828621  7  8 10           
PR19 -10272.853685  -1746.513941  23285.682664   -291.926830 12 15 11           
PR20 -10237.081778  19145.932099  13378.103992   -119.308070 10 14 11           
PR21  -2539.528680  25063.884227  -4124.219624   -135.789636 10 10 11           
PR22   6112.034119  15564.711217 -19232.708261     43.030017  8  8  9           
PR24   9439.707550 -19934.182302 -12769.210232    -72.655296 10  9  8           
PR25  -2638.804382  24851.429638  -5177.486980    -99.064892 13 13 12           
PR26  18729.268749  17030.305078  -3199.722508     33.267930 16 16 15           
EOF
